GLOBALSTAR M067 [+]     
1 32263U 07048A   23299.87845388 -.00000054  00000+0  32237-3 0  9990
2 32263  51.9749 349.4972 0001183 132.1672  38.9891 12.40633354735099
GLOBALSTAR M070 [+]     
1 32264U 07048B   23299.89621080 -.00000055  00000+0  26951-3 0  9991
2 32264  51.9728 154.1254 0000678 104.0322   1.4814 12.62280929737989
GLOBALSTAR M066 [+]     
1 32265U 07048C   23299.53658920 -.00000056  00000+0  26602-3 0  9990
2 32265  51.9700  17.2800 0000758  83.0490  19.7655 12.62274667740203
GLOBALSTAR M068 [-]     
1 32266U 07048D   23299.84622730 -.00000054  00000+0  27464-3 0  9990
2 32266  51.9898 329.1624 0000523 250.8135 280.3946 12.62769029741831
GLOBALSTAR M079 [+]     
1 37188U 10054A   23299.92245032 -.00000075  00000+0  15964-3 0  9999
2 37188  52.0019 164.0455 0001132  79.6791  27.0025 12.62269370600771
GLOBALSTAR M074 [+]     
1 37189U 10054B   23299.78380128 -.00000068  00000+0  19858-3 0  9998
2 37189  51.9995 163.8824 0000925  85.0768 351.6864 12.62271419601364
GLOBALSTAR M076 [+]     
1 37190U 10054C   23299.87560413 -.00000064  00000+0  21996-3 0  9999
2 37190  52.0008 163.7202 0001405  97.6725 275.9608 12.62262714601090
GLOBALSTAR M077 [+]     
1 37191U 10054D   23299.80351978 -.00000080  00000+0  13143-3 0  9990
2 37191  52.0047 120.6225 0000902 100.0141   4.9333 12.62267965601451
